SAR-LUPE 2              
1 31797U 07030A   26178.92808931  .00014040  00000+0  23808-3 0  9993
2 31797  98.1057 284.7042 0002643 178.6304 181.4954 15.51649048 58604
SAPPHIRE                
1 39088U 13009C   26178.82823829  .00000095  00000+0  48066-4 0  9998
2 39088  98.4264 358.0314 0010511 212.0551 147.9996 14.35243321698108
PRAETORIAN SDA_602      
1 65565U 25203A   26176.91435568  .00000104  00000+0  82306-4 0  9999
2 65565  81.3029   2.6841 0006264 162.2891 197.8485 13.84278827 39903
PRAETORIAN SDA_603      
1 65566U 25203B   26178.89547380  .00000194  00000+0  16389-3 0  9991
2 65566  81.3034   0.7719 0009988 158.8097 201.3475 13.83906359 40187
PRAETORIAN SDA_604      
1 65567U 25203C   26178.84947929  .00000085  00000+0  66444-4 0  9997
2 65567  81.3052   1.2434 0005853 162.6458 197.4899 13.83048640 40151
PRAETORIAN SDA_605      
1 65568U 25203D   26178.95648389  .00000052  00000+0  36200-4 0  9999
2 65568  81.3018   0.7970 0008673 154.4949 205.6637 13.83435001 40186
PRAETORIAN SDA_606      
1 65569U 25203E   26178.86855747  .00000032  00000+0  18241-4 0  9991
2 65569  81.3052   1.1081 0006525 157.3496 202.7949 13.83198557 40160
PRAETORIAN SDA_607      
1 65570U 25203F   26178.94046493  .00000243  00000+0  20676-3 0  9990
2 65570  81.3040   0.6847 0009233 158.6099 201.5445 13.84285980 40194
PRAETORIAN SDA_608      
1 65571U 25203G   26178.92149262  .00000065  00000+0  47922-4 0  9993
2 65571  81.3006   0.8684 0006370 161.7192 198.4195 13.83817629 40170
PRAETORIAN SDA_609      
1 65572U 25203H   26178.92335957  .00000233  00000+0  19869-3 0  9997
2 65572  81.3048   0.8479 0007279 156.7189 203.4299 13.84210125 40180
PRAETORIAN SDA_610      
1 65573U 25203J   26178.82930164  .00000079  00000+0  60986-4 0  9993
2 65573  81.3007   0.9127 0007135 161.6135 198.5281 13.83768551 40167
PRAETORIAN SDA_611      
1 65574U 25203K   26178.83362849  .00000337  00000+0  29627-3 0  9997
2 65574  81.3006   1.0821 0005930 165.4818 194.6510 13.83309847 40151
PRAETORIAN SDA_612      
1 65575U 25203L   26178.95443524  .00000247  00000+0  20777-3 0  9998
2 65575  81.3034   0.5303 0009722 157.6249 202.5334 13.85040142 40207
PRAETORIAN SDA_613      
1 65576U 25203M   26178.91691714  .00000068  00000+0  52018-4 0  9996
2 65576  81.2999   1.0101 0006142 155.5802 204.5646 13.82766051 40168
PRAETORIAN SDA_614      
1 65577U 25203N   26178.94564466  .00000057  00000+0  39766-4 0  9996
2 65577  81.3013   0.6185 0007616 155.0674 205.0852 13.84778090 40201
PRAETORIAN SDA_615      
1 65578U 25203P   26178.92518238  .00000207  00000+0  17386-3 0  9991
2 65578  81.3025   0.6083 0009493 156.6058 203.5533 13.84437288 40198
PRAETORIAN SDA_616      
1 65579U 25203Q   26178.83316060  .00000166  00000+0  14082-3 0  9995
2 65579  81.3063   1.2346 0005848 163.4417 196.6931 13.83268659 40158
PRAETORIAN SDA_617      
1 65580U 25203R   26178.92801070  .00000054  00000+0  38737-4 0  9997
2 65580  81.3036   0.9771 0007853 155.5260 204.6270 13.83150643 40175
PRAETORIAN SDA_618      
1 65581U 25203S   26177.44424983  .00000028  00000+0  14181-4 0  9996
2 65581  81.3021   1.9070 0010122 162.7241 197.4262 13.84669977 39999
PRAETORIAN SDA_619      
1 65582U 25203T   26178.85974391  .00000213  00000+0  18129-3 0  9997
2 65582  81.3045   0.9085 0008629 157.0372 203.1172 13.83806795 40809
PRAETORIAN SDA_620      
1 65583U 25203U   26178.88917758  .00000254  00000+0  21895-3 0  9994
2 65583  81.3029   0.9036 0008122 152.8814 207.2768 13.83619337 40170
PRAETORIAN SDA_621      
1 65584U 25203V   26178.93385358  .00000066  00000+0  48431-4 0  9993
2 65584  81.3021   0.7761 0007932 150.5241 209.6365 13.83802232 40181
PRAETORIAN SDA_601      
1 65585U 25203W   26178.90940287  .00000463  00000+0  41149-3 0  9998
2 65585  81.3038   1.1075 0005871 166.4976 193.6338 13.83169069 40168
VICTUS HAZE PUMA        
1 69646U 26142A   26179.00667278  .00003947  00000+0  18160-3 0  9998
2 69646  97.4481  76.5071 0021005 288.5045  71.3907 15.20728919  1318
