OBJECT_NAME,OBJECT_ID,EPOCH,MEAN_MOTION,ECCENTRICITY,INCLINATION,RA_OF_ASC_NODE,ARG_OF_PERICENTER,MEAN_ANOMALY,EPHEMERIS_TYPE,CLASSIFICATION_TYPE,NORAD_CAT_ID,ELEMENT_SET_NO,REV_AT_EPOCH,BSTAR,MEAN_MOTION_DOT,MEAN_MOTION_DDOT
SAR-LUPE 2,2007-030A,2026-06-27T22:16:26.916384,15.51649048,.00026436,98.1057,284.7042,178.6304,181.4954,0,U,31797,999,5860,.23807702E-3,.1404E-3,0
SAPPHIRE,2013-009C,2026-06-27T19:52:39.788256,14.35243321,.00105117,98.4264,358.0314,212.0551,147.9996,0,U,39088,999,69810,.48065576E-4,.95E-6,0
PRAETORIAN SDA_602,2025-203A,2026-06-25T21:56:40.330752,13.84278827,.00062643,81.3029,2.6841,162.2891,197.8485,0,U,65565,999,3990,.82305867E-4,.104E-5,0
PRAETORIAN SDA_603,2025-203B,2026-06-27T21:29:28.936320,13.83906359,.00099883,81.3034,0.7719,158.8097,201.3475,0,U,65566,999,4018,.1638878E-3,.194E-5,0
PRAETORIAN SDA_604,2025-203C,2026-06-27T20:23:15.010656,13.83048640,.00058537,81.3052,1.2434,162.6458,197.4899,0,U,65567,999,4015,.6644379E-4,.85E-6,0
PRAETORIAN SDA_605,2025-203D,2026-06-27T22:57:20.208096,13.83435001,.00086738,81.3018,0.7970,154.4949,205.6637,0,U,65568,999,4018,.36200446E-4,.52E-6,0
PRAETORIAN SDA_606,2025-203E,2026-06-27T20:50:43.365408,13.83198557,.00065255,81.3052,1.1081,157.3496,202.7949,0,U,65569,999,4016,.1824083E-4,.32E-6,0
PRAETORIAN SDA_607,2025-203F,2026-06-27T22:34:16.169952,13.84285980,.00092331,81.3040,0.6847,158.6099,201.5445,0,U,65570,999,4019,.20676146E-3,.243E-5,0
PRAETORIAN SDA_608,2025-203G,2026-06-27T22:06:56.962368,13.83817629,.00063707,81.3006,0.8684,161.7192,198.4195,0,U,65571,999,4017,.4792213E-4,.65E-6,0
PRAETORIAN SDA_609,2025-203H,2026-06-27T22:09:38.266848,13.84210125,.0007279,81.3048,0.8479,156.7189,203.4299,0,U,65572,999,4018,.1986903E-3,.233E-5,0
PRAETORIAN SDA_610,2025-203J,2026-06-27T19:54:11.661696,13.83768551,.0007135,81.3007,0.9127,161.6135,198.5281,0,U,65573,999,4016,.60985653E-4,.79E-6,0
PRAETORIAN SDA_611,2025-203K,2026-06-27T20:00:25.501536,13.83309847,.00059308,81.3006,1.0821,165.4818,194.6510,0,U,65574,999,4015,.29627261E-3,.337E-5,0
PRAETORIAN SDA_612,2025-203L,2026-06-27T22:54:23.204736,13.85040142,.00097224,81.3034,0.5303,157.6249,202.5334,0,U,65575,999,4020,.20776966E-3,.247E-5,0
PRAETORIAN SDA_613,2025-203M,2026-06-27T22:00:21.640896,13.82766051,.00061424,81.2999,1.0101,155.5802,204.5646,0,U,65576,999,4016,.52018084E-4,.68E-6,0
PRAETORIAN SDA_614,2025-203N,2026-06-27T22:41:43.698624,13.84778090,.0007616,81.3013,0.6185,155.0674,205.0852,0,U,65577,999,4020,.39766011E-4,.57E-6,0
PRAETORIAN SDA_615,2025-203P,2026-06-27T22:12:15.757632,13.84437288,.00094935,81.3025,0.6083,156.6058,203.5533,0,U,65578,999,4019,.17385979E-3,.207E-5,0
PRAETORIAN SDA_616,2025-203Q,2026-06-27T19:59:45.075840,13.83268659,.00058487,81.3063,1.2346,163.4417,196.6931,0,U,65579,999,4015,.14081919E-3,.166E-5,0
PRAETORIAN SDA_617,2025-203R,2026-06-27T22:16:20.124480,13.83150643,.00078533,81.3036,0.9771,155.5260,204.6270,0,U,65580,999,4017,.38737123E-4,.54E-6,0
PRAETORIAN SDA_618,2025-203S,2026-06-26T10:39:43.185312,13.84669977,.0010122,81.3021,1.9070,162.7241,197.4262,0,U,65581,999,3999,.14181E-4,.28E-6,0
PRAETORIAN SDA_619,2025-203T,2026-06-27T20:38:01.873824,13.83806795,.00086297,81.3045,0.9085,157.0372,203.1172,0,U,65582,999,4080,.18129092E-3,.213E-5,0
PRAETORIAN SDA_620,2025-203U,2026-06-27T21:20:24.942912,13.83619337,.00081224,81.3029,0.9036,152.8814,207.2768,0,U,65583,999,4017,.21894867E-3,.254E-5,0
PRAETORIAN SDA_621,2025-203V,2026-06-27T22:24:44.949312,13.83802232,.00079325,81.3021,0.7761,150.5241,209.6365,0,U,65584,999,4018,.48431497E-4,.66E-6,0
PRAETORIAN SDA_601,2025-203W,2026-06-27T21:49:32.407968,13.83169069,.00058714,81.3038,1.1075,166.4976,193.6338,0,U,65585,999,4016,.41148934E-3,.463E-5,0
VICTUS HAZE PUMA,2026-142A,2026-06-28T00:09:36.528192,15.20728919,.00210057,97.4481,76.5071,288.5045,71.3907,0,U,69646,999,131,.18159715E-3,.3947E-4,0
